[{"OBJECT_NAME":"OBJECT H","OBJECT_ID":"2025-055H","EPOCH":"2026-03-09T23:29:50.051328","MEAN_MOTION":15.30330066,"ECCENTRICITY":0.00075967,"INCLINATION":97.636,"RA_OF_ASC_NODE":211.9572,"ARG_OF_PERICENTER":140.4354,"MEAN_ANOMALY":219.7441,"EPHEMERIS_TYPE":0,"CLASSIFICATION_TYPE":"U","NORAD_CAT_ID":63298,"ELEMENT_SET_NO":999,"REV_AT_EPOCH":5423,"BSTAR":0.0015582864,"MEAN_MOTION_DOT":0.00045901,"MEAN_MOTION_DDOT":0},{"OBJECT_NAME":"STARLINK-36550","OBJECT_ID":"2026-012C","EPOCH":"2026-03-09T23:35:57.401664","MEAN_MOTION":15.27600352,"ECCENTRICITY":0.00011637,"INCLINATION":42.9946,"RA_OF_ASC_NODE":313.02,"ARG_OF_PERICENTER":176.5131,"MEAN_ANOMALY":183.5729,"EPHEMERIS_TYPE":0,"CLASSIFICATION_TYPE":"U","NORAD_CAT_ID":67495,"ELEMENT_SET_NO":999,"REV_AT_EPOCH":780,"BSTAR":0.0012652762,"MEAN_MOTION_DOT":0.00034741,"MEAN_MOTION_DDOT":0}]
